[{"OBJECT_NAME":"STARLINK-4645","OBJECT_ID":"2022-107AV","EPOCH":"2026-03-09T19:58:04.893312","MEAN_MOTION":15.088425,"ECCENTRICITY":0.0001382,"INCLINATION":53.2167,"RA_OF_ASC_NODE":263.572,"ARG_OF_PERICENTER":88.4399,"MEAN_ANOMALY":271.6752,"EPHEMERIS_TYPE":0,"CLASSIFICATION_TYPE":"U","NORAD_CAT_ID":53743,"ELEMENT_SET_NO":999,"REV_AT_EPOCH":19461,"BSTAR":1.2715346e-5,"MEAN_MOTION_DOT":-8.6e-7,"MEAN_MOTION_DDOT":0},{"OBJECT_NAME":"COSMOS 252","OBJECT_ID":"1968-097A","EPOCH":"2026-03-09T07:24:26.509824","MEAN_MOTION":12.88259748,"ECCENTRICITY":0.10045094,"INCLINATION":62.3208,"RA_OF_ASC_NODE":37.8588,"ARG_OF_PERICENTER":34.9769,"MEAN_ANOMALY":331.3181,"EPHEMERIS_TYPE":0,"CLASSIFICATION_TYPE":"U","NORAD_CAT_ID":3530,"ELEMENT_SET_NO":999,"REV_AT_EPOCH":69308,"BSTAR":0.00016764967,"MEAN_MOTION_DOT":3.47e-6,"MEAN_MOTION_DDOT":0}]
